{
  "norad_id": 51887,
  "name": "STARLINK-3551",
  "history": [
    {
      "epoch": "2026-03-28T20:03:49.370976",
      "apogee_km": 540.472396457445,
      "perigee_km": 539.0134155852656,
      "latitude_deg": -36.9715034495436,
      "longitude_deg": 168.95485663996078,
      "semi_major_axis_km": 6917.879906021355,
      "eccentricity": 0.00010545,
      "inclination_deg": 53.2166,
      "raan_deg": 273.1708,
      "arg_perigee_deg": 89.2014,
      "mean_anomaly_deg": 270.9099,
      "mean_motion_rev_day": 15.08840158
    }
  ]
}