{"fetched_at":"2026-03-29T16:36:15Z","count":15609,"tles":[{"name":"STARLINK-3551","line1":"1 51887U 22022AM  26087.83598809  .00000400  00000+0  43190-4 0  9994","line2":"2 51887  53.2166 273.1708 0001054  89.2014 270.9099 15.08840158226136","category":"Starlink"}]}